STARLINK-30494          
1 57970U 23151G   26068.36049035 -.00001272  00000+0 -35691-4 0  9993
2 57970  43.0027 192.4566 0001155 241.5536 118.5200 15.28417441137406
STARLINK-31931          
1 59864U 24098G   26068.95962600  .00000500  00000+0  27685-4 0  9990
2 59864  43.0021 276.7970 0001059 235.6554 124.4198 15.27569890101886
